{
  "type": "FeatureCollection",
  "features": [
    {
      "type": "Feature",
      "properties": {
        "norad_id": 34886,
        "name": "COSMOS 2251 DEB",
        "group": "cosmos-2251-debris",
        "lat": 21.994660449021303,
        "lon": 1.9022645094997022,
        "alt_km": 468.10225140265084,
        "timestamp": "2025-12-09T05:43:21.121933+00:00",
        "meta_object_name": "COSMOS 2251 DEB",
        "meta_object_id": "1993-036ACZ",
        "meta_epoch": "2025-12-06T20:50:12.525792",
        "meta_mean_motion": 15.37603061,
        "meta_eccentricity": 0.00307569,
        "meta_inclination": 73.9508,
        "meta_ra_of_asc_node": 193.7093,
        "meta_arg_of_pericenter": 18.7929,
        "meta_mean_anomaly": 341.4404,
        "meta_ephemeris_type": 0,
        "meta_classification_type": "U",
        "meta_norad_cat_id": 34886,
        "meta_element_set_no": 999,
        "meta_rev_at_epoch": 62908,
        "meta_bstar": 0.0027638496,
        "meta_mean_motion_dot": 0.00105044,
        "meta_mean_motion_ddot": 0,
        "tle_line1": "1 34886U 93036ACZ 25340.86820053  .00105044  00000+0  27638-2 0  9997",
        "tle_line2": "2 34886  73.9508 193.7093 0030756  18.7929 341.4404 15.37603061629089"
      },
      "geometry": {
        "type": "Point",
        "coordinates": [
          1.9022645094997022,
          21.994660449021303
        ]
      }
    },
    {
      "type": "Feature",
      "properties": {
        "norad_id": 34907,
        "name": "COSMOS 2251 DEB",
        "group": "cosmos-2251-debris",
        "lat": 31.85099787570911,
        "lon": 66.32733795463528,
        "alt_km": 432.8848279254262,
        "timestamp": "2025-12-09T05:43:21.121943+00:00",
        "meta_object_name": "COSMOS 2251 DEB",
        "meta_object_id": "1993-036ADC",
        "meta_epoch": "2025-12-08T06:11:55.392000",
        "meta_mean_motion": 15.40128137,
        "meta_eccentricity": 0.00196578,
        "meta_inclination": 73.9702,
        "meta_ra_of_asc_node": 58.165,
        "meta_arg_of_pericenter": 347.8557,
        "meta_mean_anomaly": 12.2173,
        "meta_ephemeris_type": 0,
        "meta_classification_type": "U",
        "meta_norad_cat_id": 34907,
        "meta_element_set_no": 999,
        "meta_rev_at_epoch": 87904,
        "meta_bstar": 0.0077771011,
        "meta_mean_motion_dot": 0.00327218,
        "meta_mean_motion_ddot": 0,
        "tle_line1": "1 34907U 93036ADC 25342.25828000  .00327218  00000+0  77771-2 0  9998",
        "tle_line2": "2 34907  73.9702  58.1650 0019657 347.8557  12.2173 15.40128137879041"
      },
      "geometry": {
        "type": "Point",
        "coordinates": [
          66.32733795463528,
          31.85099787570911
        ]
      }
    },
    {
      "type": "Feature",
      "properties": {
        "norad_id": 34908,
        "name": "COSMOS 2251 DEB",
        "group": "cosmos-2251-debris",
        "lat": -34.3717378941869,
        "lon": 18.817522702457023,
        "alt_km": 769.5580663664805,
        "timestamp": "2025-12-09T05:43:21.121954+00:00",
        "meta_object_name": "COSMOS 2251 DEB",
        "meta_object_id": "1993-036ADD",
        "meta_epoch": "2025-12-08T13:54:35.273088",
        "meta_mean_motion": 14.37380571,
        "meta_eccentricity": 0.0039916,
        "meta_inclination": 74.0591,
        "meta_ra_of_asc_node": 31.3012,
        "meta_arg_of_pericenter": 48.7886,
        "meta_mean_anomaly": 107.8413,
        "meta_ephemeris_type": 0,
        "meta_classification_type": "U",
        "meta_norad_cat_id": 34908,
        "meta_element_set_no": 999,
        "meta_rev_at_epoch": 87219,
        "meta_bstar": 0.00088663,
        "meta_mean_motion_dot": 2.648e-05,
        "meta_mean_motion_ddot": 0,
        "tle_line1": "1 34908U 93036ADD 25342.57957492  .00002648  00000+0  88663-3 0  9992",
        "tle_line2": "2 34908  74.0591  31.3012 0039916  48.7886 107.8413 14.37380571872191"
      },
      "geometry": {
        "type": "Point",
        "coordinates": [
          18.817522702457023,
          -34.3717378941869
        ]
      }
    },
    {
      "type": "Feature",
      "properties": {
        "norad_id": 34909,
        "name": "COSMOS 2251 DEB",
        "group": "cosmos-2251-debris",
        "lat": -47.32427485114535,
        "lon": 65.34058157044889,
        "alt_km": 642.4640074406097,
        "timestamp": "2025-12-09T05:43:21.121965+00:00",
        "meta_object_name": "COSMOS 2251 DEB",
        "meta_object_id": "1993-036ADE",
        "meta_epoch": "2025-12-08T16:57:05.311008",
        "meta_mean_motion": 14.77777338,
        "meta_eccentricity": 0.0084799,
        "meta_inclination": 74.0146,
        "meta_ra_of_asc_node": 84.5006,
        "meta_arg_of_pericenter": 221.1994,
        "meta_mean_anomaly": 138.2762,
        "meta_ephemeris_type": 0,
        "meta_classification_type": "U",
        "meta_norad_cat_id": 34909,
        "meta_element_set_no": 999,
        "meta_rev_at_epoch": 66792,
        "meta_bstar": 0.0010413,
        "meta_mean_motion_dot": 7.909e-05,
        "meta_mean_motion_ddot": 0,
        "tle_line1": "1 34909U 93036ADE 25342.70631147  .00007909  00000+0  10413-2 0  9996",
        "tle_line2": "2 34909  74.0146  84.5006 0084799 221.1994 138.2762 14.77777338667920"
      },
      "geometry": {
        "type": "Point",
        "coordinates": [
          65.34058157044889,
          -47.32427485114535
        ]
      }
    },
    {
      "type": "Feature",
      "properties": {
        "norad_id": 34910,
        "name": "COSMOS 2251 DEB",
        "group": "cosmos-2251-debris",
        "lat": -48.84172537500957,
        "lon": -53.72362422663372,
        "alt_km": 774.9633316765312,
        "timestamp": "2025-12-09T05:43:21.121975+00:00",
        "meta_object_name": "COSMOS 2251 DEB",
        "meta_object_id": "1993-036ADF",
        "meta_epoch": "2025-12-04T03:27:09.174816",
        "meta_mean_motion": 13.3765034,
        "meta_eccentricity": 0.04679235,
        "meta_inclination": 73.8763,
        "meta_ra_of_asc_node": 114.9889,
        "meta_arg_of_pericenter": 235.2756,
        "meta_mean_anomaly": 311.3517,
        "meta_ephemeris_type": 0,
        "meta_classification_type": "U",
        "meta_norad_cat_id": 34910,
        "meta_element_set_no": 999,
        "meta_rev_at_epoch": 81409,
        "meta_bstar": 0.0018660381,
        "meta_mean_motion_dot": 1.821e-05,
        "meta_mean_motion_ddot": 0,
        "tle_line1": "1 34910U 93036ADF 25338.14385619  .00001821  00000+0  18660-2 0  9990",
        "tle_line2": "2 34910  73.8763 114.9889 0467923 235.2756 311.3517 13.37650340814099"
      },
      "geometry": {
        "type": "Point",
        "coordinates": [
          -53.72362422663372,
          -48.84172537500957
        ]
      }
    },
    {
      "type": "Feature",
      "properties": {
        "norad_id": 34911,
        "name": "COSMOS 2251 DEB",
        "group": "cosmos-2251-debris",
        "lat": -72.85171651216729,
        "lon": -176.61439878296343,
        "alt_km": 713.3651302377202,
        "timestamp": "2025-12-09T05:43:21.121988+00:00",
        "meta_object_name": "COSMOS 2251 DEB",
        "meta_object_id": "1993-036ADG",
        "meta_epoch": "2025-12-08T00:33:11.051712",
        "meta_mean_motion": 14.59358852,
        "meta_eccentricity": 0.00833702,
        "meta_inclination": 74.0411,
        "meta_ra_of_asc_node": 253.7326,
        "meta_arg_of_pericenter": 20.3643,
        "meta_mean_anomaly": 354.2304,
        "meta_ephemeris_type": 0,
        "meta_classification_type": "U",
        "meta_norad_cat_id": 34911,
        "meta_element_set_no": 999,
        "meta_rev_at_epoch": 88518,
        "meta_bstar": 0.00028084005,
        "meta_mean_motion_dot": 1.363e-05,
        "meta_mean_motion_ddot": 0,
        "tle_line1": "1 34911U 93036ADG 25342.02304458  .00001363  00000+0  28084-3 0  9998",
        "tle_line2": "2 34911  74.0411 253.7326 0083370  20.3643 354.2304 14.59358852885185"
      },
      "geometry": {
        "type": "Point",
        "coordinates": [
          -176.61439878296343,
          -72.85171651216729
        ]
      }
    },
    {
      "type": "Feature",
      "properties": {
        "norad_id": 34913,
        "name": "COSMOS 2251 DEB",
        "group": "cosmos-2251-debris",
        "lat": -49.01703860826244,
        "lon": 128.16282334885372,
        "alt_km": 796.9396126532674,
        "timestamp": "2025-12-09T05:43:21.122002+00:00",
        "meta_object_name": "COSMOS 2251 DEB",
        "meta_object_id": "1993-036ADJ",
        "meta_epoch": "2025-12-08T14:23:24.561312",
        "meta_mean_motion": 14.34635579,
        "meta_eccentricity": 0.00202,
        "meta_inclination": 74.0281,
        "meta_ra_of_asc_node": 290.0848,
        "meta_arg_of_pericenter": 41.3537,
        "meta_mean_anomaly": 132.2282,
        "meta_ephemeris_type": 0,
        "meta_classification_type": "U",
        "meta_norad_cat_id": 34913,
        "meta_element_set_no": 999,
        "meta_rev_at_epoch": 65128,
        "meta_bstar": 0.00010953,
        "meta_mean_motion_dot": 2.84e-06,
        "meta_mean_motion_ddot": 0,
        "tle_line1": "1 34913U 93036ADJ 25342.59958983  .00000284  00000+0  10953-3 0  9997",
        "tle_line2": "2 34913  74.0281 290.0848 0020200  41.3537 132.2282 14.34635579651281"
      },
      "geometry": {
        "type": "Point",
        "coordinates": [
          128.16282334885372,
          -49.01703860826244
        ]
      }
    }
  ]
}